NORAD_CAT_ID,OBJECT_NAME,OBJECT_TYPE,EPOCH,MEAN_MOTION,ECCENTRICITY,INCLINATION,RA_OF_ASC_NODE,ARG_OF_PERICENTER,MEAN_ANOMALY,BSTAR,MEAN_MOTION_DOT,MEAN_MOTION_DDOT,TLE_LINE0,TLE_LINE1,TLE_LINE2,SEMIMAJOR_AXIS,PERIOD,APOGEE,PERIGEE,DECAYED
56806.0,STARLINK-6072,PAYLOAD,2023-09-20 13:42:01,15.69922756,0.0003602,69.9999,97.5618,278.677,81.4017,2.8217e-05,3.181e-05,0.0,0 STARLINK-6072,1 56806U 23078AR  23263.57084830  .00003181  00000-0  28217-4 0  9993,2 56806  69.9999  97.5618 0003602 278.6770  81.4017 15.69922756 17676,6737.255,91.724,361.547,356.693,0.0
56806.0,STARLINK-6072,PAYLOAD,2023-09-20 16:45:31,15.6991214,0.0002953,69.9999,97.2027,266.4285,93.6573,-6.4118e-06,-9.83e-06,0.0,0 STARLINK-6072,1 56806U 23078AR  23263.69828530 -.00000983  00000-0 -64118-5 0  9999,2 56806  69.9999  97.2027 0002953 266.4285  93.6573 15.69912140 17950,6737.285,91.725,361.14,357.161,0.0
56806.0,STARLINK-6072,PAYLOAD,2023-09-20 21:20:47,15.69917083,0.0003098,70.0,96.6657,268.75,91.3341,9.1592e-06,8.89e-06,0.0,0 STARLINK-6072,1 56806U 23078AR  23263.88943483  .00000889  00000-0  91592-5 0  9994,2 56806  70.0000  96.6657 0003098 268.7500  91.3341 15.69917083 17728,6737.271,91.725,361.223,357.049,0.0
56806.0,STARLINK-6072,PAYLOAD,2023-09-20 22:52:32,15.69921031,0.0003096,70.0005,96.4871,268.6223,91.4618,1.8565e-05,2.02e-05,0.0,0 STARLINK-6072,1 56806U 23078AR  23263.95315018  .00002020  00000-0  18565-4 0  9996,2 56806  70.0005  96.4871 0003096 268.6223  91.4618 15.69921031 17993,6737.26,91.724,361.211,357.039,0.0
56806.0,STARLINK-6072,PAYLOAD,2023-09-21 21:48:48,15.69920743,0.0003682,69.999,93.7998,267.4306,92.6468,3.2996e-05,3.756e-05,0.0,0 STARLINK-6072,1 56806U 23078AR  23264.90890046  .00003756  00000-0  32996-4 0  9992,2 56806  69.9990  93.7998 0003682 267.4306  92.6468 15.69920743 17886,6737.261,91.724,361.606,356.645,0.0
56806.0,STARLINK-6072,PAYLOAD,2023-09-21 23:20:33,15.69924806,0.000365,69.9989,93.6206,263.4257,96.6523,1.6978e-05,1.829e-05,0.0,0 STARLINK-6072,1 56806U 23078AR  23264.97261457  .00001829  00000-0  16978-4 0  9998,2 56806  69.9989  93.6206 0003650 263.4257  96.6523 15.69924806 18152,6737.249,91.724,361.573,356.655,0.0
56806.0,STARLINK-6072,PAYLOAD,2023-09-22 13:06:19,15.69935011,0.0003491,69.9996,92.0065,267.1468,92.9329,2.8239e-05,3.186e-05,0.0,0 STARLINK-6072,1 56806U 23078AR  23265.54606131  .00003186  00000-0  28239-4 0  9995,2 56806  69.9996  92.0065 0003491 267.1468  92.9329 15.69935011 17987,6737.22,91.724,361.437,356.733,0.0
56806.0,STARLINK-6072,PAYLOAD,2023-09-22 20:45:05,15.69927073,0.0003629,69.9987,91.1139,269.008,91.07,1.5324e-05,1.63e-05,0.0,0 STARLINK-6072,1 56806U 23078AR  23265.86464755  .00001630  00000-0  15324-4 0  9997,2 56806  69.9987  91.1139 0003629 269.0080  91.0700 15.69927073 18032,6737.243,91.724,361.553,356.663,0.0
56806.0,STARLINK-6072,PAYLOAD,2023-09-23 04:00:00,15.69927801,0.000343,69.9995,90.2633,266.3721,0.1835,-0.00024286,-0.00029318,0.0,0 STARLINK-6072,1 56806U 23078AR  23266.16667824 -.00029318  00000-0 -24286-3 0  9994,2 56806  69.9995  90.2633 0003430 266.3721   0.1835 15.69927801 18345,6737.241,91.724,361.416,356.795,0.0
56806.0,STARLINK-6072,PAYLOAD,2023-09-23 14:00:01,15.69938051,0.0003424,69.9999,89.0916,262.9783,197.7267,-0.00012099,-0.00014744,0.0,0 STARLINK-6072,1 56806U 23078AR  23266.58334491 -.00014744  00000-0 -12099-3 0  9997,2 56806  69.9999  89.0916 0003424 262.9783 197.7267 15.69938051  5978,6737.211,91.723,361.383,356.769,0.0
56806.0,STARLINK-6072,PAYLOAD,2023-09-23 20:00:01,15.69933072,0.0003374,69.9997,88.3888,268.5163,164.7073,-0.00012267,-0.00014942,0.0,0 STARLINK-6072,1 56806U 23078AR  23266.83334491 -.00014942  00000-0 -12267-3 0  9992,2 56806  69.9997  88.3888 0003374 268.5163 164.7073 15.69933072 18447,6737.225,91.724,361.364,356.817,0.0
56806.0,STARLINK-6072,PAYLOAD,2023-09-24 14:02:24,15.69924973,0.0003703,70.001,86.275,275.88,84.1974,4.2035e-05,4.845e-05,0.0,0 STARLINK-6072,1 56806U 23078AR  23267.58500055  .00004845  00000-0  42035-4 0  9992,2 56806  70.0010  86.2750 0003703 275.8800  84.1974 15.69924973 18306,6737.249,91.724,361.608,356.619,0.0
56806.0,STARLINK-6072,PAYLOAD,2023-09-24 15:34:08,15.69940465,0.0003379,69.9987,86.0975,240.4312,119.6547,4.1993e-05,4.843e-05,0.0,0 STARLINK-6072,1 56806U 23078AR  23267.64870818  .00004843  00000-0  41993-4 0  9996,2 56806  69.9987  86.0975 0003379 240.4312 119.6547 15.69940465 18571,6737.204,91.723,361.346,356.793,0.0
56806.0,STARLINK-6072,PAYLOAD,2023-09-24 21:41:09,15.69922183,0.0003586,69.9983,85.3809,268.5272,91.5513,9.4662e-06,9.25e-06,0.0,0 STARLINK-6072,1 56806U 23078AR  23267.90358541  .00000925  00000-0  94662-5 0  9998,2 56806  69.9983  85.3809 0003586 268.5272  91.5513 15.69922183 18355,6737.257,91.724,361.538,356.706,0.0
56806.0,STARLINK-6072,PAYLOAD,2023-09-25 12:58:40,15.69938233,0.0003877,69.999,83.5881,270.151,89.9241,1.5076e-05,1.601e-05,0.0,0 STARLINK-6072,1 56806U 23078AR  23268.54074347  .00001601  00000-0  15076-4 0  9991,2 56806  69.9990  83.5881 0003877 270.1510  89.9241 15.69938233 18453,6737.211,91.723,361.688,356.464,0.0
56806.0,STARLINK-6072,PAYLOAD,2023-09-25 20:37:26,15.69921241,0.0003556,69.9978,82.692,265.1565,94.9224,-8.5838e-06,-1.245e-05,0.0,0 STARLINK-6072,1 56806U 23078AR  23268.85933358 -.00001245  00000-0 -85838-5 0  9991,2 56806  69.9978  82.6920 0003556 265.1565  94.9224 15.69921241 18505,6737.259,91.724,361.52,356.729,0.0
56806.0,STARLINK-6072,PAYLOAD,2023-09-26 14:58:28,15.69925037,0.0003574,69.9979,80.5416,271.2128,88.8658,-1.3583e-05,-1.846e-05,0.0,0 STARLINK-6072,1 56806U 23078AR  23269.62393520 -.00001846  00000-0 -13583-4 0  9992,2 56806  69.9979  80.5416 0003574 271.2128  88.8658 15.69925037 18629,6737.248,91.724,361.521,356.706,0.0
56806.0,STARLINK-6072,PAYLOAD,2023-09-26 21:05:29,15.6990581,0.0003056,69.9989,79.8257,275.7559,84.3288,-3.5093e-05,-4.426e-05,0.0,0 STARLINK-6072,1 56806U 23078AR  23269.87881131 -.00004426  00000-0 -35093-4 0  9996,2 56806  69.9989  79.8257 0003056 275.7559  84.3288 15.69905810 18667,6737.303,91.725,361.227,357.11,0.0
56806.0,STARLINK-6072,PAYLOAD,2023-09-27 04:44:14,15.69911312,0.0003758,69.9976,78.9298,265.7842,94.2924,-1.6283e-05,-2.17e-05,0.0,0 STARLINK-6072,1 56806U 23078AR  23270.19739228 -.00002170  00000-0 -16283-4 0  9996,2 56806  69.9976  78.9298 0003758 265.7842  94.2924 15.69911312 18976,6737.288,91.725,361.685,356.621,0.0
56806.0,STARLINK-6072,PAYLOAD,2023-09-27 12:23:00,15.69917147,0.0003709,69.9977,78.0336,264.3349,95.7424,-2.1141e-05,-2.754e-05,0.0,0 STARLINK-6072,1 56806U 23078AR  23270.51597444 -.00002754  00000-0 -21141-4 0  9991,2 56806  69.9977  78.0336 0003709 264.3349  95.7424 15.69917147 18764,6737.271,91.725,361.635,356.637,0.0
56806.0,STARLINK-6072,PAYLOAD,2023-09-27 13:54:45,15.69921687,0.0003453,69.9982,77.8542,263.6892,96.391,-1.4185e-05,-1.918e-05,0.0,0 STARLINK-6072,1 56806U 23078AR  23270.57968918 -.00001918  00000-0 -14185-4 0  9996,2 56806  69.9982  77.8542 0003453 263.6892  96.3910 15.69921687 19039,6737.258,91.724,361.449,356.797,0.0
56806.0,STARLINK-6072,PAYLOAD,2023-09-27 21:33:29,15.69940899,0.0004401,69.9992,76.9591,252.1649,107.9067,6.7841e-05,7.959e-05,0.0,0 STARLINK-6072,1 56806U 23078AR  23270.89826385  .00007959  00000-0  67841-4 0  9998,2 56806  69.9992  76.9591 0004401 252.1649 107.9067 15.69940899 19084,6737.203,91.723,362.033,356.103,0.0
56806.0,STARLINK-6072,PAYLOAD,2023-09-28 14:22:46,15.69931269,0.0002941,69.9999,74.9894,248.4533,111.635,1.3057e-05,1.358e-05,0.0,0 STARLINK-6072,1 56806U 23078AR  23271.59915227  .00001358  00000-0  13057-4 0  9997,2 56806  69.9999  74.9894 0002941 248.4533 111.6350 15.69931269 18933,6737.231,91.724,361.077,357.114,0.0
56806.0,STARLINK-6072,PAYLOAD,2023-09-28 20:29:47,15.69926738,0.0003566,69.999,74.272,266.6438,93.435,9.3011e-06,9.06e-06,0.0,0 STARLINK-6072,1 56806U 23078AR  23271.85402174  .00000906  00000-0  93011-5 0  9995,2 56806  69.9990  74.2720 0003566 266.6438  93.4350 15.69926738 18971,6737.244,91.724,361.511,356.706,0.0
56806.0,STARLINK-6072,PAYLOAD,2023-09-29 13:19:03,15.69928531,0.0003512,69.9989,72.3013,267.3089,92.7704,2.3365e-05,2.598e-05,0.0,0 STARLINK-6072,1 56806U 23078AR  23272.55490590  .00002598  00000-0  23365-4 0  9995,2 56806  69.9989  72.3013 0003512 267.3089  92.7704 15.69928531 19085,6737.238,91.724,361.47,356.737,0.0
56806.0,STARLINK-6072,PAYLOAD,2023-09-29 19:26:04,15.69932952,0.0003374,69.9992,71.5847,269.6632,90.4177,2.7062e-05,3.044e-05,0.0,0 STARLINK-6072,1 56806U 23078AR  23272.80977001  .00003044  00000-0  27062-4 0  9995,2 56806  69.9992  71.5847 0003374 269.6632  90.4177 15.69932952 19126,6737.226,91.724,361.364,356.818,0.0
56806.0,STARLINK-6072,PAYLOAD,2023-09-30 10:43:36,15.69916711,0.0003208,69.9993,69.7932,276.5361,83.5469,3.6151e-06,2.22e-06,0.0,0 STARLINK-6072,1 56806U 23078AR  23273.44694720  .00000222  00000-0  36151-5 0  9995,2 56806  69.9993  69.7932 0003208 276.5361  83.5469 15.69916711 19484,6737.272,91.725,361.299,356.976,0.0
56806.0,STARLINK-6072,PAYLOAD,2023-09-30 18:22:21,15.6993156,0.0003305,69.9996,68.8976,269.1574,90.9243,3.2022e-05,3.64e-05,0.0,0 STARLINK-6072,1 56806U 23078AR  23273.76552402  .00003640  00000-0  32022-4 0  9999,2 56806  69.9996  68.8976 0003305 269.1574  90.9243 15.69931560 19534,6737.23,91.724,361.321,356.868,0.0
56806.0,STARLINK-6072,PAYLOAD,2023-10-01 11:11:37,15.69926479,0.0003015,70.0009,66.9274,267.9049,92.1801,1.1928e-05,1.222e-05,0.0,0 STARLINK-6072,1 56806U 23078AR  23274.46640864  .00001222  00000-0  11928-4 0  9993,2 56806  70.0009  66.9274 0003015 267.9049  92.1801 15.69926479 19642,6737.244,91.724,361.141,357.078,0.0
56806.0,STARLINK-6072,PAYLOAD,2023-10-01 12:43:22,15.69928669,0.0002729,70.0025,66.7491,267.2289,92.8594,2.3765e-05,2.646e-05,0.0,0 STARLINK-6072,1 56806U 23078AR  23274.53012542  .00002646  00000-0  23765-4 0  9990,2 56806  70.0025  66.7491 0002729 267.2289  92.8594 15.69928669 19390,6737.238,91.724,360.942,357.264,0.0
